[{"OBJECT_NAME":"STARLINK-6245","OBJECT_ID":"2023-088AH","EPOCH":"2026-03-09T22:00:01.999584","MEAN_MOTION":15.11050888,"ECCENTRICITY":0.00020399,"INCLINATION":42.9997,"RA_OF_ASC_NODE":93.1432,"ARG_OF_PERICENTER":277.4364,"MEAN_ANOMALY":128.4537,"EPHEMERIS_TYPE":0,"CLASSIFICATION_TYPE":"U","NORAD_CAT_ID":57079,"ELEMENT_SET_NO":999,"REV_AT_EPOCH":572,"BSTAR":0.0036049084,"MEAN_MOTION_DOT":0.00061661,"MEAN_MOTION_DDOT":0},{"OBJECT_NAME":"OBJECT C","OBJECT_ID":"2025-180C","EPOCH":"2026-03-09T23:47:54.737664","MEAN_MOTION":15.14468548,"ECCENTRICITY":0.00128699,"INCLINATION":97.5082,"RA_OF_ASC_NODE":197.2463,"ARG_OF_PERICENTER":306.8815,"MEAN_ANOMALY":53.1236,"EPHEMERIS_TYPE":0,"CLASSIFICATION_TYPE":"U","NORAD_CAT_ID":65261,"ELEMENT_SET_NO":999,"REV_AT_EPOCH":3064,"BSTAR":0.00036364309,"MEAN_MOTION_DOT":6.637e-5,"MEAN_MOTION_DDOT":0}]
